[{"OBJECT_NAME":"HULIANWANG DIGUI-79","OBJECT_ID":"2025-187G","EPOCH":"2026-03-09T22:24:24.740352","MEAN_MOTION":13.29343475,"ECCENTRICITY":0.00010206,"INCLINATION":50.0031,"RA_OF_ASC_NODE":202.1159,"ARG_OF_PERICENTER":153.4976,"MEAN_ANOMALY":206.5949,"EPHEMERIS_TYPE":0,"CLASSIFICATION_TYPE":"U","NORAD_CAT_ID":65311,"ELEMENT_SET_NO":999,"REV_AT_EPOCH":2649,"BSTAR":9.6747558e-5,"MEAN_MOTION_DOT":-7.9e-7,"MEAN_MOTION_DDOT":0},{"OBJECT_NAME":"OSCAR 30 DEB","OBJECT_ID":"1985-066H","EPOCH":"2026-03-09T22:59:08.932128","MEAN_MOTION":13.51741247,"ECCENTRICITY":0.01487251,"INCLINATION":90.1664,"RA_OF_ASC_NODE":68.3325,"ARG_OF_PERICENTER":100.9381,"MEAN_ANOMALY":293.3903,"EPHEMERIS_TYPE":0,"CLASSIFICATION_TYPE":"U","NORAD_CAT_ID":21878,"ELEMENT_SET_NO":999,"REV_AT_EPOCH":98535,"BSTAR":0.0015825479,"MEAN_MOTION_DOT":1.119e-5,"MEAN_MOTION_DDOT":0}]
